COSMO-SKYMED 1          
1 31598U 07023A   26169.80593752  .00002243  00000+0  19959-3 0  9997
2 31598  97.8848   1.6751 0001419  98.3010 261.8372 14.97106365 30035
COSMOS 2428             
1 31792U 07029A   26169.77199494 -.00000105  00000+0 -30808-4 0  9994
2 31792  70.9369 351.1500 0007128 131.9450 228.2280 14.12927897978372
SL-16 R/B               
1 31793U 07029B   26169.81441925  .00000038  00000+0  44448-4 0  9997
2 31793  70.9770 319.8072 0002360 262.4913 200.2367 14.14855495979677
KORONAS-FOTON           
1 33504U 09003A   26169.43795946  .00008132  00000+0  16700-3 0  9998
2 33504  82.4288 170.9548 0011811 143.5150 216.6906 15.45741559961297
CZ-2C R/B               
1 37731U 11030B   26169.79676132  .00001004  00000+0  13200-3 0  9994
2 37731  97.8655 125.1538 0052933  22.8132  36.8168 14.81474828805066
H-2A R/B                
1 38341U 12025E   26169.69556661  .00002023  00000+0  18450-3 0  9994
2 38341  98.4833 144.9656 0043523 344.3359  15.6510 14.95727372763314
SHIJIAN-16 (SJ-16)      
1 39358U 13057A   26169.84805248  .00000112  00000+0  13760-4 0  9991
2 39358  74.9727 353.5370 0016767 226.8950 133.0837 14.92605516686599
SL-4 R/B                
1 39679U 14021B   26169.81370115  .00007671  00000+0  16179-3 0  9999
2 39679  51.6039 202.8025 0091174 111.8778 249.1933 15.41982454671866
ALOS-2                  
1 39766U 14029A   26169.82999184  .00001234  00000+0  17207-3 0  9990
2 39766  97.9224 266.9699 0001661  91.0596 269.0805 14.79473749651824
YAOGAN-29               
1 41038U 15069A   26169.86451272  .00000026  00000+0  98692-5 0  9992
2 41038  98.0021 198.5003 0002570  52.1407 308.0038 14.83086200570878
ASTRO-H (HITOMI)        
1 41337U 16012A   26169.81842103  .00002082  00000+0  11749-3 0  9995
2 41337  30.9998  63.6518 0009800 269.8871  90.0644 15.10516660567535
HXMT (HUIYAN)           
1 42758U 17034A   26169.84458597  .00002117  00000+0  11129-3 0  9992
2 42758  43.0125 173.8119 0030790 157.8655 202.3530 15.18484769497917
SAOCOM 1A               
1 43641U 18076A   26169.82380541  .00000879  00000+0  11703-3 0  9993
2 43641  97.8880 356.5482 0001611  80.6035 279.5361 14.82151844416343
H-2A R/B                
1 43682U 18084L   26169.81195150  .00015714  00000+0  32985-3 0  9995
2 43682  98.8567  49.0564 0023326  35.1554 325.1223 15.45205060421378
SAOCOM 1B               
1 46265U 20059A   26169.85496167  .00000015  00000+0  83956-5 0  9990
2 46265  97.8882 355.6737 0001588  82.7697 277.3696 14.82146245313738
CSS (TIANHE)            
1 48274U 21035A   26169.83259120  .00017666  00000+0  20869-3 0  9993
2 48274  41.4697 311.9880 0007368  91.6871 268.4812 15.60871130293427
COSMOS 2550             
1 48865U 21056A   26168.93698449  .00006747  00000+0  21059-3 0  9993
2 48865  67.1435  97.6381 0008342 268.6108  91.4090 15.33847751278836
CZ-2C R/B               
1 52794U 22058K   26169.32973262  .00031967  00000+0  35493-3 0  9994
2 52794  50.1842 157.5724 0032461 272.7164  87.0094 15.61926706225825
CZ-2C R/B               
1 54039U 22132E   26169.74428135  .00051506  00000+0  39719-3 0  9997
2 54039  97.2901 176.8377 0015887  79.3792 280.9259 15.71645913206191
GSLV R/B                
1 54149U 22138AN  26169.65495132  .00002035  00000+0  17236-3 0  9999
2 54149  87.3809 132.4915 0023101 138.7263 221.5721 14.97263486199034
XRISM                   
1 57800U 23137A   26169.77452784  .00004086  00000+0  22354-3 0  9990
2 57800  31.0032 349.3195 0007937 339.5471  20.4850 15.12478761153104
ACS3                    
1 59588U 24077B   26169.78455828  .00041507  00000+0  30373-1 0  9999
2 59588  97.1684  88.2166 0078734  62.3549 298.5582 13.94157125108265
CZ-8A R/B               
1 66004U 25231K   26169.86875786 -.00000019  00000+0  51546-4 0  9993
2 66004  50.0055  32.1619 0116488 229.9252 129.1404 14.30155295 35187
SZ-21 MODULE            
1 66515U 25246C   26169.41946242  .00038742  00000+0  23745-3 0  9995
2 66515  41.4747 299.6525 0006546 354.9385   5.1392 15.76496050 33939
